NUSAT-26 (M SOMERVILLE) 
1 52184U 22033AD  26199.24499806  .00008248  00000+0  18696-3 0  9993
2 52184  97.2333 278.1062 0007185 129.1808 231.0080 15.43314309109495
NUSAT-33 (ALBANIA-2)    
1 55047U 23001AQ  26199.31513273  .00004808  00000+0  17709-3 0  9995
2 55047  97.3049 259.6257 0004659 300.0788  59.9990 15.28295905197061
NUSAT-35 (WILLIAMINA)   
1 55048U 23001AR  26199.31409896  .00006967  00000+0  20152-3 0  9995
2 55048  97.1829 251.2885 0010082 358.8356   1.2863 15.35871323197184
NUSAT-39 (TIKVAH ALPER) 
1 56201U 23054Z   26199.21413115  .00015908  00000+0  30473-3 0  9995
2 56201  97.3084 109.2826 0001546 300.1213  59.9884 15.48116200183251
NUSAT-38 (MARIA AGNESI) 
1 56202U 23054AA  26199.20274241  .00019822  00000+0  33841-3 0  9991
2 56202  97.3025 110.0185 0008362 314.1538  45.9026 15.51318578183319
NUSAT-37 (JOAN CLARKE)  
1 56203U 23054AB  26199.18043682  .00029151  00000+0  36378-3 0  9996
2 56203  97.2593 106.8956 0008192 136.1879 224.0029 15.59797515183479
NUSAT-40 (C SHOEMAKER)  
1 56943U 23084M   26199.25844714  .00100206  00000+0  46690-3 0  9992
2 56943  97.4868 348.3993 0003918 180.5425 179.5840 15.83053532173714
NUSAT-41 (C PAYNE-G)    
1 56944U 23084N   26199.32147613  .00005939  00000+0  20737-3 0  9996
2 56944  97.5558 336.5422 0007254 197.3847 162.7146 15.29957302172540
NUSAT-42 (M WONENBURGER)
1 56966U 23084AL  26199.29798097  .00013169  00000+0  26614-3 0  9998
2 56966  97.5758 344.7549 0006841 136.5867 223.5922 15.46591760172881
NUSAT-44 (MARIA MITCHE*)
1 59122U 24043AA  26199.34317968  .00005748  00000+0  20125-3 0  9996
2 59122  97.5492 340.0836 0006618 122.6890 237.4989 15.29886858132031
NUSAT-50 (NANCY ROMAN)  
1 60493U 24149AB  26199.16639763  .00004931  00000+0  17055-3 0  9997
2 60493  97.3777 280.2154 0004872  94.7005 265.4792 15.30349302106868
NUSAT-48 (HENRIETTA LE*)
1 60498U 24149AG  26199.15550142  .00004631  00000+0  16056-3 0  9991
2 60498  97.3910 280.5019 0005034 150.1456 210.0073 15.30303449106874
NUSAT-49 (KLARA DAN VO*)
1 60500U 24149AJ  26198.21718721  .00001697  00000+0  61424-4 0  9999
2 60500  97.3781 279.3028 0002525 161.7492 198.3840 15.29800004106721
NUSAT-45 (UZMASAT-1)    
1 62640U 25009AH  26199.18688721  .00004518  00000+0  15897-3 0  9992
2 62640  97.3586 280.1071 0002014 168.2318 191.8970 15.29840571 83663
NUSAT-52                
1 66692U 25276AC  26199.15631109  .00002680  00000+0  12743-3 0  9999
2 66692  97.4193 272.1937 0001650 257.1694 102.9356 15.20053289 35123
NUSAT-51 (YVONNE BRILL) 
1 66740U 25276CC  26199.15645329  .00003236  00000+0  15085-3 0  9992
2 66740  97.4199 272.3394 0001954 219.7765 140.3327 15.20585407 35139
