{"fetched_at":"2026-07-18T17:30:07.678Z","source":"https://celestrak.org/NORAD/elements/gp.php?NAME=NUSAT&FORMAT=JSON","constellation":"satellogic","records":[{"OBJECT_NAME":"NUSAT-26 (M SOMERVILLE)","OBJECT_ID":"2022-033AD","EPOCH":"2026-07-18T05:52:47.832384","CLASSIFICATION_TYPE":"U","MEAN_MOTION":15.43314309,"ECCENTRICITY":0.00071858,"INCLINATION":97.2333,"RA_OF_ASC_NODE":278.1062,"ARG_OF_PERICENTER":129.1808,"MEAN_ANOMALY":231.008,"EPHEMERIS_TYPE":0,"NORAD_CAT_ID":52184,"ELEMENT_SET_NO":999,"REV_AT_EPOCH":10949,"BSTAR":0.00018696291,"MEAN_MOTION_DOT":0.00008248,"MEAN_MOTION_DDOT":0},{"OBJECT_NAME":"NUSAT-33 (ALBANIA-2)","OBJECT_ID":"2023-001AQ","EPOCH":"2026-07-18T07:33:47.467872","CLASSIFICATION_TYPE":"U","MEAN_MOTION":15.28295905,"ECCENTRICITY":0.00046591,"INCLINATION":97.3049,"RA_OF_ASC_NODE":259.6257,"ARG_OF_PERICENTER":300.0788,"MEAN_ANOMALY":59.999,"EPHEMERIS_TYPE":0,"NORAD_CAT_ID":55047,"ELEMENT_SET_NO":999,"REV_AT_EPOCH":19706,"BSTAR":0.00017708764,"MEAN_MOTION_DOT":0.00004808,"MEAN_MOTION_DDOT":0},{"OBJECT_NAME":"NUSAT-35 (WILLIAMINA)","OBJECT_ID":"2023-001AR","EPOCH":"2026-07-18T07:32:18.150144","CLASSIFICATION_TYPE":"U","MEAN_MOTION":15.35871323,"ECCENTRICITY":0.0010082,"INCLINATION":97.1829,"RA_OF_ASC_NODE":251.2885,"ARG_OF_PERICENTER":358.8356,"MEAN_ANOMALY":1.2863,"EPHEMERIS_TYPE":0,"NORAD_CAT_ID":55048,"ELEMENT_SET_NO":999,"REV_AT_EPOCH":19718,"BSTAR":0.0002015229,"MEAN_MOTION_DOT":0.00006967,"MEAN_MOTION_DDOT":0},{"OBJECT_NAME":"NUSAT-39 (TIKVAH ALPER)","OBJECT_ID":"2023-054Z","EPOCH":"2026-07-18T05:08:20.931360","CLASSIFICATION_TYPE":"U","MEAN_MOTION":15.481162,"ECCENTRICITY":0.00015464,"INCLINATION":97.3084,"RA_OF_ASC_NODE":109.2826,"ARG_OF_PERICENTER":300.1213,"MEAN_ANOMALY":59.9884,"EPHEMERIS_TYPE":0,"NORAD_CAT_ID":56201,"ELEMENT_SET_NO":999,"REV_AT_EPOCH":18325,"BSTAR":0.00030472633,"MEAN_MOTION_DOT":0.00015908,"MEAN_MOTION_DDOT":0},{"OBJECT_NAME":"NUSAT-38 (MARIA AGNESI)","OBJECT_ID":"2023-054AA","EPOCH":"2026-07-18T04:51:56.944224","CLASSIFICATION_TYPE":"U","MEAN_MOTION":15.51318578,"ECCENTRICITY":0.00083627,"INCLINATION":97.3025,"RA_OF_ASC_NODE":110.0185,"ARG_OF_PERICENTER":314.1538,"MEAN_ANOMALY":45.9026,"EPHEMERIS_TYPE":0,"NORAD_CAT_ID":56202,"ELEMENT_SET_NO":999,"REV_AT_EPOCH":18331,"BSTAR":0.00033841454,"MEAN_MOTION_DOT":0.00019822,"MEAN_MOTION_DDOT":0},{"OBJECT_NAME":"NUSAT-37 (JOAN CLARKE)","OBJECT_ID":"2023-054AB","EPOCH":"2026-07-18T04:19:49.741248","CLASSIFICATION_TYPE":"U","MEAN_MOTION":15.59797515,"ECCENTRICITY":0.00081922,"INCLINATION":97.2593,"RA_OF_ASC_NODE":106.8956,"ARG_OF_PERICENTER":136.1879,"MEAN_ANOMALY":224.0029,"EPHEMERIS_TYPE":0,"NORAD_CAT_ID":56203,"ELEMENT_SET_NO":999,"REV_AT_EPOCH":18347,"BSTAR":0.00036377898,"MEAN_MOTION_DOT":0.00029151,"MEAN_MOTION_DDOT":0},{"OBJECT_NAME":"NUSAT-40 (C SHOEMAKER)","OBJECT_ID":"2023-084M","EPOCH":"2026-07-18T06:12:09.832896","CLASSIFICATION_TYPE":"U","MEAN_MOTION":15.83053532,"ECCENTRICITY":0.00039189,"INCLINATION":97.4868,"RA_OF_ASC_NODE":348.3993,"ARG_OF_PERICENTER":180.5425,"MEAN_ANOMALY":179.584,"EPHEMERIS_TYPE":0,"NORAD_CAT_ID":56943,"ELEMENT_SET_NO":999,"REV_AT_EPOCH":17371,"BSTAR":0.00046689927,"MEAN_MOTION_DOT":0.00100206,"MEAN_MOTION_DDOT":0},{"OBJECT_NAME":"NUSAT-41 (C PAYNE-G)","OBJECT_ID":"2023-084N","EPOCH":"2026-07-18T07:42:55.537632","CLASSIFICATION_TYPE":"U","MEAN_MOTION":15.29957302,"ECCENTRICITY":0.00072549,"INCLINATION":97.5558,"RA_OF_ASC_NODE":336.5422,"ARG_OF_PERICENTER":197.3847,"MEAN_ANOMALY":162.7146,"EPHEMERIS_TYPE":0,"NORAD_CAT_ID":56944,"ELEMENT_SET_NO":999,"REV_AT_EPOCH":17254,"BSTAR":0.0002073741,"MEAN_MOTION_DOT":0.00005939,"MEAN_MOTION_DDOT":0},{"OBJECT_NAME":"NUSAT-42 (M WONENBURGER)","OBJECT_ID":"2023-084AL","EPOCH":"2026-07-18T07:09:05.555808","CLASSIFICATION_TYPE":"U","MEAN_MOTION":15.4659176,"ECCENTRICITY":0.00068418,"INCLINATION":97.5758,"RA_OF_ASC_NODE":344.7549,"ARG_OF_PERICENTER":136.5867,"MEAN_ANOMALY":223.5922,"EPHEMERIS_TYPE":0,"NORAD_CAT_ID":56966,"ELEMENT_SET_NO":999,"REV_AT_EPOCH":17288,"BSTAR":0.00026613507,"MEAN_MOTION_DOT":0.00013169,"MEAN_MOTION_DDOT":0},{"OBJECT_NAME":"NUSAT-44 (MARIA MITCHELL)","OBJECT_ID":"2024-043AA","EPOCH":"2026-07-18T08:14:10.724352","CLASSIFICATION_TYPE":"U","MEAN_MOTION":15.29886858,"ECCENTRICITY":0.00066182,"INCLINATION":97.5492,"RA_OF_ASC_NODE":340.0836,"ARG_OF_PERICENTER":122.689,"MEAN_ANOMALY":237.4989,"EPHEMERIS_TYPE":0,"NORAD_CAT_ID":59122,"ELEMENT_SET_NO":999,"REV_AT_EPOCH":13203,"BSTAR":0.00020125433,"MEAN_MOTION_DOT":0.00005748,"MEAN_MOTION_DDOT":0},{"OBJECT_NAME":"NUSAT-50 (NANCY ROMAN)","OBJECT_ID":"2024-149AB","EPOCH":"2026-07-18T03:59:36.755232","CLASSIFICATION_TYPE":"U","MEAN_MOTION":15.30349302,"ECCENTRICITY":0.00048721,"INCLINATION":97.3777,"RA_OF_ASC_NODE":280.2154,"ARG_OF_PERICENTER":94.7005,"MEAN_ANOMALY":265.4792,"EPHEMERIS_TYPE":0,"NORAD_CAT_ID":60493,"ELEMENT_SET_NO":999,"REV_AT_EPOCH":10686,"BSTAR":0.00017055012,"MEAN_MOTION_DOT":0.00004931,"MEAN_MOTION_DDOT":0},{"OBJECT_NAME":"NUSAT-48 (HENRIETTA LEAVITT)","OBJECT_ID":"2024-149AG","EPOCH":"2026-07-18T03:43:55.322688","CLASSIFICATION_TYPE":"U","MEAN_MOTION":15.30303449,"ECCENTRICITY":0.00050342,"INCLINATION":97.391,"RA_OF_ASC_NODE":280.5019,"ARG_OF_PERICENTER":150.1456,"MEAN_ANOMALY":210.0073,"EPHEMERIS_TYPE":0,"NORAD_CAT_ID":60498,"ELEMENT_SET_NO":999,"REV_AT_EPOCH":10687,"BSTAR":0.00016056079,"MEAN_MOTION_DOT":0.00004631,"MEAN_MOTION_DDOT":0},{"OBJECT_NAME":"NUSAT-49 (KLARA DAN VON NEUMANN)","OBJECT_ID":"2024-149AJ","EPOCH":"2026-07-17T05:12:44.974944","CLASSIFICATION_TYPE":"U","MEAN_MOTION":15.29800004,"ECCENTRICITY":0.0002525,"INCLINATION":97.3781,"RA_OF_ASC_NODE":279.3028,"ARG_OF_PERICENTER":161.7492,"MEAN_ANOMALY":198.384,"EPHEMERIS_TYPE":0,"NORAD_CAT_ID":60500,"ELEMENT_SET_NO":999,"REV_AT_EPOCH":10672,"BSTAR":0.000061424254,"MEAN_MOTION_DOT":0.00001697,"MEAN_MOTION_DDOT":0},{"OBJECT_NAME":"NUSAT-45 (UZMASAT-1)","OBJECT_ID":"2025-009AH","EPOCH":"2026-07-18T04:29:07.054944","CLASSIFICATION_TYPE":"U","MEAN_MOTION":15.29840571,"ECCENTRICITY":0.00020147,"INCLINATION":97.3586,"RA_OF_ASC_NODE":280.1071,"ARG_OF_PERICENTER":168.2318,"MEAN_ANOMALY":191.897,"EPHEMERIS_TYPE":0,"NORAD_CAT_ID":62640,"ELEMENT_SET_NO":999,"REV_AT_EPOCH":8366,"BSTAR":0.00015896916,"MEAN_MOTION_DOT":0.00004518,"MEAN_MOTION_DDOT":0},{"OBJECT_NAME":"NUSAT-52","OBJECT_ID":"2025-276AC","EPOCH":"2026-07-18T03:45:05.278176","CLASSIFICATION_TYPE":"U","MEAN_MOTION":15.20053289,"ECCENTRICITY":0.00016507,"INCLINATION":97.4193,"RA_OF_ASC_NODE":272.1937,"ARG_OF_PERICENTER":257.1694,"MEAN_ANOMALY":102.9356,"EPHEMERIS_TYPE":0,"NORAD_CAT_ID":66692,"ELEMENT_SET_NO":999,"REV_AT_EPOCH":3512,"BSTAR":0.00012743431,"MEAN_MOTION_DOT":0.0000268,"MEAN_MOTION_DDOT":0},{"OBJECT_NAME":"NUSAT-51 (YVONNE BRILL)","OBJECT_ID":"2025-276CC","EPOCH":"2026-07-18T03:45:17.564256","CLASSIFICATION_TYPE":"U","MEAN_MOTION":15.20585407,"ECCENTRICITY":0.00019546,"INCLINATION":97.4199,"RA_OF_ASC_NODE":272.3394,"ARG_OF_PERICENTER":219.7765,"MEAN_ANOMALY":140.3327,"EPHEMERIS_TYPE":0,"NORAD_CAT_ID":66740,"ELEMENT_SET_NO":999,"REV_AT_EPOCH":3513,"BSTAR":0.00015085087,"MEAN_MOTION_DOT":0.00003236,"MEAN_MOTION_DDOT":0}]}
